satname,norad_id,inclination_deg,eccentricity,mean_motion_rev_per_day,perigee_km,apogee_km,l1,l2
STARLINK-1151,45081,53.0558,0.0001188,15.06394973,546.4042317730591,548.0496982511468,1 45081U 20006AP  25323.49905844  .00002027  00000+0  15496-3 0  9992,2 45081  53.0558  41.3583 0001188  76.5370 283.5751 15.06394973320133
STARLINK-1190,45083,53.0332,0.0004271,16.10150337,243.6015566476699,249.2602625560512,1 45083U 20006AR  25323.53586118  .00847332  41319-3  87138-3 0  9998,2 45083  53.0332 339.1924 0004271 344.3849  15.7052 16.10150337321001
STARLINK-1185,45087,53.058,0.0001279,15.06386952,546.3657912723274,548.1373056630255,1 45087U 20006AV  25323.60778832 -.00001818  00000+0 -10321-3 0  9997,2 45087  53.0580  20.7916 0001279  87.5751 272.5385 15.06386952320433
STARLINK-1183,45088,53.0552,0.0001568,15.06393891,546.1443836170029,548.3161787963891,1 45088U 20006AW  25323.69625382  .00000829  00000+0  74560-4 0  9993,2 45088  53.0552  20.3979 0001568  91.9913 268.1255 15.06393891320446
STARLINK-1142,45093,53.0314,0.000845,15.70220557,352.5738669631173,363.95838824877137,1 45093U 20006BB  25323.91668980  .00290996  00000+0  22715-2 0  9994,2 45093  53.0314 304.4590 0008450  74.1673 201.6825 15.70220557  5956
STARLINK-1152,45096,53.0444,0.0004029,15.25643984,486.0856439273048,491.6190639487086,1 45096U 20006BE  25323.40108850  .00035395  00000+0  13797-2 0  9996,2 45096  53.0444   1.4601 0004029 263.3114  96.7425 15.25643984320682
STARLINK-1184,45098,53.0556,0.000139,15.06391066,546.2763122412825,548.201566752462,1 45098U 20006BG  25323.44561007 -.00000629  00000+0 -23344-4 0  9994,2 45098  53.0556  21.5227 0001390  78.8780 281.2366 15.06391066320406
STARLINK-1193,45100,53.0569,0.000167,15.06390513,546.0840963145547,548.3971724444382,1 45100U 20006BJ  25323.44192381  .00000577  00000+0  57671-4 0  9993,2 45100  53.0569  21.5393 0001670  90.4972 269.6208 15.06390513320403
STARLINK-1143,45179,53.0478,0.0009068,15.43055335,430.9180303383755,443.27814068946464,1 45179U 20012B   25322.53775794  .00100173  00000+0  22111-2 0  9992,2 45179  53.0478 144.7785 0009068 115.7187 244.4755 15.43055335318663
STARLINK-1202,45183,53.0532,0.000143,15.06399143,546.2238593017064,548.2045097404789,1 45183U 20012F   25323.63727666 -.00000580  00000+0 -20035-4 0  9992,2 45183  53.0532 180.6651 0001430  87.5697 272.5456 15.06399143318259
STARLINK-1216,45185,53.0535,0.0001016,15.06402531,546.5001861733081,547.9074154240307,1 45185U 20012H   25323.62990242 -.00000767  00000+0 -32576-4 0  9995,2 45185  53.0535 180.6956 0001016  87.4292 272.6813 15.06402531318199
STARLINK-1225,45187,53.0551,0.0001407,15.063878,546.2745476304253,548.2233512365956,1 45187U 20012K   25323.31660569 -.00002969  00000+0 -18060-3 0  9996,2 45187  53.0551 182.1023 0001407 106.2652 253.8492 15.06387800318190
STARLINK-1230,45189,53.052,0.000132,15.06395913,546.3099363698693,548.1382316960535,1 45189U 20012M   25323.58567501  .00002767  00000+0  20461-3 0  9991,2 45189  53.0520 180.8979 0001320  90.1078 270.0062 15.06395913315465
STARLINK-1234,45190,53.0516,0.0003518,15.38683289,447.5998052481091,452.40408380947974,1 45190U 20012N   25323.20184280  .00029378  00000+0  76447-3 0  9993,2 45190  53.0516 135.5442 0003518 170.9364 189.1703 15.38683289318747
STARLINK-1269,45197,53.0534,0.0001525,15.06400423,546.1541460471244,548.2663769618839,1 45197U 20012V   25323.59672973 -.00005682  00000+0 -36283-3 0  9991,2 45197  53.0534 180.8479 0001525  92.0372 268.0792 15.06400423318215
STARLINK-1154,45198,53.052,7.27e-05,15.06398955,546.7112876416168,547.7182337876247,1 45198U 20012W   25323.85289634 -.00000681  00000+0 -26858-4 0  9991,2 45198  53.0520 159.6952 0000727  47.4473 312.6578 15.06398955318506
STARLINK-1199,45201,53.0543,0.0001475,15.06380575,546.2495957115461,548.2925910990998,1 45201U 20012Z   25323.26684435  .00000082  00000+0  24398-4 0  9999,2 45201  53.0543 162.3279 0001475 103.3928 256.7226 15.06380575318470
STARLINK-1209,45206,53.0527,0.0002084,15.32496356,466.94031601623465,469.79393893656743,1 45206U 20012AE  25323.79136671  .00059478  00000+0  18660-2 0  9992,2 45206  53.0527 134.2024 0002084 166.6413 193.4643 15.32496356317968
STARLINK-1210,45207,53.0216,0.0008554,15.61264383,378.2194202300316,389.7880906344253,1 45207U 20012AF  25322.77594298  .00123871  00000+0  14155-2 0  9997,2 45207  53.0216  97.4915 0008554 118.5209 241.6665 15.61264383319349
STARLINK-1231,45212,53.0486,0.0007961,15.13503959,520.028148660047,531.0201579483382,1 45212U 20012AL  25323.53152785  .00024296  00000+0  13526-2 0  9991,2 45212  53.0486 158.6053 0007961 107.7830 252.4031 15.13503959318504
STARLINK-1271,45217,53.052,0.0001268,15.06392583,546.3561529887238,548.1124271478857,1 45217U 20012AR  25323.84921863  .00003257  00000+0  23748-3 0  9993,2 45217  53.0520 159.7120 0001268  97.5954 262.5179 15.06392583318564
STARLINK-1191,45222,53.0549,0.0001155,15.0639722,546.4201995084486,548.0199569935248,1 45222U 20012AW  25323.79208796 -.00000663  00000+0 -25616-4 0  9993,2 45222  53.0549 139.9670 0001155  94.1490 265.9630 15.06397220318836
STARLINK-1212,45223,53.0541,0.0001744,15.06396725,546.0138128207464,548.4293778988067,1 45223U 20012AX  25323.21347152 -.00001067  00000+0 -52763-4 0  9993,2 45223  53.0541 143.2224 0001744  98.8829 261.2358 15.06396725318748
STARLINK-1215,45225,53.0504,0.0001569,15.0643556,546.0160037146179,548.1891438928769,1 45225U 20012AZ  25323.76626748  .00008542  00000+0  59111-3 0  9992,2 45225  53.0504 140.0832 0001569  90.8320 269.2849 15.06435560318780
STARLINK-1221,45227,53.0683,0.0004119,15.37564379,450.5002981940661,456.12804767032776,1 45227U 20012BB  25323.56570774  .00016933  00000+0  46206-3 0  9993,2 45227  53.0683  69.7151 0004119  35.4901 324.6375 15.37564379319747
STARLINK-1222,45228,53.0535,0.0001392,15.06398933,546.2508191670549,548.1788371160092,1 45228U 20012BC  25323.79945322 -.00005338  00000+0 -33977-3 0  9994,2 45228  53.0535 139.9349 0001392  96.3087 263.8060 15.06398933318723
STARLINK-1226,45229,53.052,0.0001452,15.06400306,546.2050596180707,548.2161805669457,1 45229U 20012BD  25323.23182533  .00000725  00000+0  67537-4 0  9994,2 45229  53.0520 142.4816 0001452  95.6879 264.4276 15.06400306318649
STARLINK-1227,45230,53.0512,0.000142,15.06411956,546.1915204707193,548.1583090545118,1 45230U 20012BE  25323.75891390  .00003247  00000+0  23669-3 0  9990,2 45230  53.0512 140.1159 0001420  98.3891 261.7259 15.06411956318842
STARLINK-1246,45235,53.0536,0.0001136,15.06394486,546.4417360896814,548.0151791216485,1 45235U 20012BK  25323.57461416 -.00002147  00000+0 -12534-3 0  9996,2 45235  53.0536 180.9439 0001136  93.1202 266.9917 15.06394486318261
STARLINK-1270,45237,53.0539,0.0001353,15.06404346,546.2612402485247,548.135235963955,1 45237U 20012BM  25323.77734282 -.00000006  00000+0  18472-4 0  9993,2 45237  53.0539 140.0338 0001353  88.7669 271.3475 15.06404346318838
STARLINK-1279,45360,53.0522,0.000753,15.3743622,448.54944058545607,458.83817778408866,1 45360U 20019A   25323.84561029  .00081791  00000+0  21809-2 0  9997,2 45360  53.0522 263.1585 0007530  75.4648 284.7189 15.37436220313678
STARLINK-1301,45361,53.0517,0.0006854,15.40040994,441.3109599822319,450.6654708275091,1 45361U 20019B   25323.91668980  .00110641  00000+0  26966-2 0  9996,2 45361  53.0517 272.2032 0006854  69.2460 343.8109 15.40040994  5852
STARLINK-1306,45362,53.0444,0.0005958,15.77081122,334.7137195021869,342.7175210845289,1 45362U 20019C   25323.91668980  .00152183  00000+0  90221-3 0  9990,2 45362  53.0444 257.4758 0005958  41.9316  29.4575 15.77081122  5754
STARLINK-1262,45366,53.0539,0.0001305,15.06395187,546.3225492175116,548.1300690411954,1 45366U 20019G   25323.22445128 -.00000534  00000+0 -16966-4 0  9994,2 45366  53.0539 302.5124 0001305  84.3567 275.7571 15.06395187313084
STARLINK-1273,45367,53.0552,0.0001669,15.06391624,546.0813843319938,548.3930742497305,1 45367U 20019H   25323.64464873 -.00001619  00000+0 -89855-4 0  9991,2 45367  53.0552 300.6272 0001669  88.9643 271.1538 15.06391624313143
STARLINK-1276,45368,53.0546,0.0001412,15.06393203,546.2545276848132,548.2102520005046,1 45368U 20019J   25323.68150471 -.00000829  00000+0 -36748-4 0  9997,2 45368  53.0546 300.4649 0001412  88.3276 271.7874 15.06393203313150
STARLINK-1277,45369,53.0557,0.0001382,15.06390228,546.2844205629672,548.1985951825436,1 45369U 20019K   25323.67421433 -.00000449  00000+0 -11232-4 0  9995,2 45369  53.0557 301.1224 0001382  85.7162 274.3985 15.06390228313146
STARLINK-1281,45370,53.0549,0.0001554,15.06389269,546.168242826092,548.3206513798514,1 45370U 20019L   25323.67045181 -.00000143  00000+0  92785-5 0  9992,2 45370  53.0549 300.5150 0001554  89.5290 270.5877 15.06389269313157
STARLINK-1300,45374,53.0569,0.0002277,15.06394396,545.651827666893,548.8056392219041,1 45374U 20019Q   25323.22813169 -.00001558  00000+0 -85728-4 0  9996,2 45374  53.0569 302.4997 0002277 114.2856 245.8371 15.06394396313083
STARLINK-1302,45375,53.0549,0.0001489,15.06391847,546.2053577007582,548.2677339427028,1 45375U 20019R   25323.64096163 -.00002744  00000+0 -16542-3 0  9995,2 45375  53.0549 300.6460 0001489  92.7365 267.3795 15.06391847313140
STARLINK-1304,45376,53.0543,0.0001217,15.06389871,546.3997833408157,548.0854207359516,1 45376U 20019S   25323.26130632 -.00001306  00000+0 -68812-4 0  9995,2 45376  53.0543 302.3466 0001217  85.4663 274.6465 15.06389871313081
STARLINK-1305,45377,53.0536,0.000507,15.33841549,460.8944300566209,467.83272564256094,1 45377U 20019T   25323.20960277  .00090241  00000+0  26963-2 0  9999,2 45377  53.0536 296.8488 0005070  60.1180 300.0325 15.33841549313163
STARLINK-1319,45379,53.0551,0.0003884,15.38510981,447.85950673747993,453.16400108952075,1 45379U 20019V   25323.62919534  .00156014  00000+0  39717-2 0  9999,2 45379  53.0551 296.6743 0003884  76.9795 283.1641 15.38510981313207
